[{"OBJECT_NAME":"STARLINK-5450","OBJECT_ID":"2022-175W","EPOCH":"2026-03-09T04:37:59.635776","MEAN_MOTION":15.08844145,"ECCENTRICITY":0.00014663,"INCLINATION":53.2189,"RA_OF_ASC_NODE":31.4144,"ARG_OF_PERICENTER":94.435,"MEAN_ANOMALY":265.6809,"EPHEMERIS_TYPE":0,"CLASSIFICATION_TYPE":"U","NORAD_CAT_ID":54778,"ELEMENT_SET_NO":999,"REV_AT_EPOCH":18005,"BSTAR":3.118046e-5,"MEAN_MOTION_DOT":2.08e-6,"MEAN_MOTION_DDOT":0},{"OBJECT_NAME":"FENGYUN 1C DEB","OBJECT_ID":"1999-025DVA","EPOCH":"2026-03-08T04:27:49.439232","MEAN_MOTION":15.15496966,"ECCENTRICITY":0.00338373,"INCLINATION":98.8203,"RA_OF_ASC_NODE":206.4896,"ARG_OF_PERICENTER":4.2711,"MEAN_ANOMALY":355.88,"EPHEMERIS_TYPE":0,"CLASSIFICATION_TYPE":"U","NORAD_CAT_ID":36225,"ELEMENT_SET_NO":999,"REV_AT_EPOCH":68062,"BSTAR":0.0036229129,"MEAN_MOTION_DOT":0.00070122,"MEAN_MOTION_DDOT":0}]
